{
    "links": {
        "self": "http://www.neowsapp.com/rest/v1/neo/3843379?api_key=iIulBulltgU6a56xZRHN4H3l9WmuAYTsLGpBGhQ2"
    },
    "id": "3843379",
    "neo_reference_id": "3843379",
    "name": "(2019 OF2)",
    "designation": "2019 OF2",
    "nasa_jpl_url": "http://ssd.jpl.nasa.gov/sbdb.cgi?sstr=3843379",
    "absolute_magnitude_h": 24.0,
    "estimated_diameter": {
        "kilometers": {
            "estimated_diameter_min": 0.0421264611,
            "estimated_diameter_max": 0.0941976306
        },
        "meters": {
            "estimated_diameter_min": 42.1264610556,
            "estimated_diameter_max": 94.1976305719
        },
        "miles": {
            "estimated_diameter_min": 0.0261761612,
            "estimated_diameter_max": 0.0585316759
        },
        "feet": {
            "estimated_diameter_min": 138.2101784897,
            "estimated_diameter_max": 309.0473542854
        }
    },
    "is_potentially_hazardous_asteroid": false,
    "close_approach_data": [
        {
            "close_approach_date": "2019-09-03",
            "close_approach_date_full": "2019-Sep-03 01:13",
            "epoch_date_close_approach": 1567473180000,
            "relative_velocity": {
                "kilometers_per_second": "10.7310552437",
                "kilometers_per_hour": "38631.7988774428",
                "miles_per_hour": "24004.2974747088"
            },
            "miss_distance": {
                "astronomical": "0.0467604775",
                "lunar": "18.1898257475",
                "kilometers": "6995267.834182925",
                "miles": "4346657.874957365"
            },
            "orbiting_body": "Earth"
        },
        {
            "close_approach_date": "2063-08-31",
            "close_approach_date_full": "2063-Aug-31 09:35",
            "epoch_date_close_approach": 2955778500000,
            "relative_velocity": {
                "kilometers_per_second": "11.5872635691",
                "kilometers_per_hour": "41714.1488486009",
                "miles_per_hour": "25919.5498776209"
            },
            "miss_distance": {
                "astronomical": "0.0562497138",
                "lunar": "21.8811386682",
                "kilometers": "8414837.372589606",
                "miles": "5228737.4835483228"
            },
            "orbiting_body": "Mars"
        },
        {
            "close_approach_date": "2064-01-18",
            "close_approach_date_full": "2064-Jan-18 03:53",
            "epoch_date_close_approach": 2967853980000,
            "relative_velocity": {
                "kilometers_per_second": "23.1663830404",
                "kilometers_per_hour": "83398.978945427",
                "miles_per_hour": "51820.8822230627"
            },
            "miss_distance": {
                "astronomical": "0.366610009",
                "lunar": "142.611293501",
                "kilometers": "54844076.46708083",
                "miles": "34078528.874262254"
            },
            "orbiting_body": "Earth"
        }
    ],
    "orbital_data": {
        "orbit_id": "5",
        "orbit_determination_date": "2019-08-20 05:40:50",
        "first_observation_date": "2019-07-26",
        "last_observation_date": "2019-08-20",
        "data_arc_in_days": 25,
        "observations_used": 27,
        "orbit_uncertainty": "8",
        "minimum_orbit_intersection": ".00509415",
        "jupiter_tisserand_invariant": "4.054",
        "epoch_osculation": "2458693.5",
        "eccentricity": ".5091961140928797",
        "semi_major_axis": "1.694004275995382",
        "inclination": "1.142969415056932",
        "ascending_node_longitude": "139.5976421543493",
        "orbital_period": "805.3231437523501",
        "perihelion_distance": ".8314238814018116",
        "perihelion_argument": "256.3216519403074",
        "aphelion_distance": "2.556584670588953",
        "perihelion_time": "2458770.822435285947",
        "mean_anomaly": "325.4348978805693",
        "mean_motion": ".4470255235961601",
        "equinox": "J2000",
        "orbit_class": {
            "orbit_class_type": "APO",
            "orbit_class_description": "Near-Earth asteroid orbits which cross the Earth’s orbit similar to that of 1862 Apollo",
            "orbit_class_range": "a (semi-major axis) > 1.0 AU; q (perihelion) < 1.017 AU"
        }
    },
    "is_sentry_object": false
}